start=new Date('2022-01-02T00:00:00.000Z').valueOf();
sats=[{"FILE":"3255246","SEMIMAJOR_AXIS":"6681.282","DECAY_DATE":null,"APOAPSIS":"306.137","COUNTRY_CODE":"US","OBJECT_TYPE":"PAYLOAD","MEAN_MOTION_DOT":"0.00052765","REV_AT_EPOCH":"372","PERIAPSIS":"300.158","RA_OF_ASC_NODE":"66.6894","EPHEMERIS_TYPE":"0","TLE_LINE1":"1 47415U 21006C   22001.91667824  .00052765  33076-5  18250-3 0  9996","MEAN_ELEMENT_THEORY":"SGP4","SITE":"AFETR","OBJECT_NAME":"STARLINK-2201","ECCENTRICITY":"0.00044750","LAUNCH_DATE":"2021-01-24","ARG_OF_PERICENTER":"207.0669","CENTER_NAME":"EARTH","GP_ID":"192893943","MEAN_ANOMALY":"197.0969","TLE_LINE2":"2 47415  97.4972  66.6894 0004475 207.0669 197.0969 15.89692095  3727","NORAD_CAT_ID":"47415","OBJECT_ID":"2021-006C","EPOCH":"2022-01-01T22:00:00.999936","MEAN_MOTION_DDOT":"0.0000033076000","CLASSIFICATION_TYPE":"U","BSTAR":"0.00018250000000","PERIOD":"90.584","TIME_SYSTEM":"UTC","MEAN_MOTION":"15.89692095","INCLINATION":"97.4972","REF_FRAME":"TEME","RCS_SIZE":"LARGE","ELEMENT_SET_NO":"999"},{"SEMIMAJOR_AXIS":"6692.404","FILE":"3255246","OBJECT_TYPE":"PAYLOAD","APOAPSIS":"315.348","COUNTRY_CODE":"US","DECAY_DATE":null,"RA_OF_ASC_NODE":"68.7830","PERIAPSIS":"313.190","REV_AT_EPOCH":"368","MEAN_MOTION_DOT":"0.00654613","TLE_LINE1":"1 47416U 21006D   22001.91667824  .00654613  00000-0  25205-2 0  9990","EPHEMERIS_TYPE":"0","SITE":"AFETR","MEAN_ELEMENT_THEORY":"SGP4","OBJECT_NAME":"STARLINK-2202","ECCENTRICITY":"0.00016120","LAUNCH_DATE":"2021-01-24","GP_ID":"192894695","CENTER_NAME":"EARTH","ARG_OF_PERICENTER":"223.3050","NORAD_CAT_ID":"47416","TLE_LINE2":"2 47416  97.4970  68.7830 0001612 223.3050 276.1793 15.85731167  3683","MEAN_ANOMALY":"276.1793","MEAN_MOTION_DDOT":"0.0000000000000","EPOCH":"2022-01-01T22:00:00.999936","OBJECT_ID":"2021-006D","CLASSIFICATION_TYPE":"U","TIME_SYSTEM":"UTC","BSTAR":"0.00252050000000","PERIOD":"90.810","MEAN_MOTION":"15.85731167","REF_FRAME":"TEME","INCLINATION":"97.4970","ELEMENT_SET_NO":"999","RCS_SIZE":"LARGE"},{"RCS_SIZE":"LARGE","ELEMENT_SET_NO":"999","INCLINATION":"97.4971","REF_FRAME":"TEME","MEAN_MOTION":"15.85721178","PERIOD":"90.810","BSTAR":"0.00252460000000","TIME_SYSTEM":"UTC","CLASSIFICATION_TYPE":"U","OBJECT_ID":"2021-006K","EPOCH":"2022-01-01T22:00:00.999936","MEAN_MOTION_DDOT":"0.0000000000000","MEAN_ANOMALY":"291.0971","TLE_LINE2":"2 47422  97.4971  68.8153 0001625 222.6615 291.0971 15.85721178  3688","NORAD_CAT_ID":"47422","ARG_OF_PERICENTER":"222.6615","CENTER_NAME":"EARTH","GP_ID":"192894446","LAUNCH_DATE":"2021-01-24","ECCENTRICITY":"0.00016250","OBJECT_NAME":"STARLINK-2208","MEAN_ELEMENT_THEORY":"SGP4","SITE":"AFETR","EPHEMERIS_TYPE":"0","TLE_LINE1":"1 47422U 21006K   22001.91667824  .00655426  00000-0  25246-2 0  9995","MEAN_MOTION_DOT":"0.00655426","REV_AT_EPOCH":"368","PERIAPSIS":"313.209","RA_OF_ASC_NODE":"68.8153","DECAY_DATE":null,"COUNTRY_CODE":"US","APOAPSIS":"315.384","OBJECT_TYPE":"PAYLOAD","FILE":"3255246","SEMIMAJOR_AXIS":"6692.432"},{"CLASSIFICATION_TYPE":"U","EPOCH":"2022-01-01T10:44:43.534176","MEAN_MOTION_DDOT":"0.0000000000000","OBJECT_ID":"2021-009A","NORAD_CAT_ID":"47548","MEAN_ANOMALY":"283.9312","TLE_LINE2":"2 47548  53.0546  32.1759 0001503  76.1844 283.9312 15.06368365 50599","CENTER_NAME":"EARTH","GP_ID":"192868791","ARG_OF_PERICENTER":"76.1844","ELEMENT_SET_NO":"999","RCS_SIZE":"LARGE","REF_FRAME":"TEME","INCLINATION":"53.0546","MEAN_MOTION":"15.06368365","PERIOD":"95.594","BSTAR":"-0.00022287000000","TIME_SYSTEM":"UTC","TLE_LINE1":"1 47548U 21009A   22001.44772609 -.00003597  00000-0 -22287-3 0  9994","EPHEMERIS_TYPE":"0","RA_OF_ASC_NODE":"32.1759","MEAN_MOTION_DOT":"-0.00003597","REV_AT_EPOCH":"5059","PERIAPSIS":"546.270","APOAPSIS":"548.351","COUNTRY_CODE":"US","OBJECT_TYPE":"PAYLOAD","DECAY_DATE":null,"SEMIMAJOR_AXIS":"6925.446","FILE":"3255244","LAUNCH_DATE":"2021-02-04","ECCENTRICITY":"0.00015030","OBJECT_NAME":"STARLINK-1782","SITE":"AFETR","MEAN_ELEMENT_THEORY":"SGP4"},{"ECCENTRICITY":"0.00013810","LAUNCH_DATE":"2021-02-04","SITE":"AFETR","MEAN_ELEMENT_THEORY":"SGP4","OBJECT_NAME":"STARLINK-1806","RA_OF_ASC_NODE":"33.0748","MEAN_MOTION_DOT":"0.00000775","REV_AT_EPOCH":"5056","PERIAPSIS":"546.287","TLE_LINE1":"1 47549U 21009B   22001.24498921  .00000775  00000-0  70964-4 0  9994","EPHEMERIS_TYPE":"0","SEMIMAJOR_AXIS":"6925.379","FILE":"3255244","APOAPSIS":"548.200","COUNTRY_CODE":"US","OBJECT_TYPE":"PAYLOAD","DECAY_DATE":null,"REF_FRAME":"TEME","INCLINATION":"53.0566","ELEMENT_SET_NO":"999","RCS_SIZE":"LARGE","PERIOD":"95.593","BSTAR":"0.00007096400000","TIME_SYSTEM":"UTC","MEAN_MOTION":"15.06390118","EPOCH":"2022-01-01T05:52:47.067744","MEAN_MOTION_DDOT":"0.0000000000000","OBJECT_ID":"2021-009B","CLASSIFICATION_TYPE":"U","CENTER_NAME":"EARTH","GP_ID":"192869042","ARG_OF_PERICENTER":"81.5783","NORAD_CAT_ID":"47549","MEAN_ANOMALY":"278.5362","TLE_LINE2":"2 47549  53.0566  33.0748 0001381  81.5783 278.5362 15.06390118 50569"},{"ECCENTRICITY":"0.00013880","LAUNCH_DATE":"2021-02-04","MEAN_ELEMENT_THEORY":"SGP4","SITE":"AFETR","OBJECT_NAME":"STARLINK-1909","MEAN_MOTION_DOT":"0.00000860","REV_AT_EPOCH":"5074","PERIAPSIS":"546.267","RA_OF_ASC_NODE":"21.8369","EPHEMERIS_TYPE":"0","TLE_LINE1":"1 47550U 21009C   22001.52235491  .00000860  00000-0  76608-4 0  9994","FILE":"3255244","SEMIMAJOR_AXIS":"6925.364","DECAY_DATE":null,"APOAPSIS":"548.190","COUNTRY_CODE":"US","OBJECT_TYPE":"PAYLOAD","INCLINATION":"53.0574","REF_FRAME":"TEME","RCS_SIZE":"LARGE","ELEMENT_SET_NO":"999","PERIOD":"95.592","BSTAR":"0.00007660800000","TIME_SYSTEM":"UTC","MEAN_MOTION":"15.06395070","OBJECT_ID":"2021-009C","EPOCH":"2022-01-01T12:32:11.464224","MEAN_MOTION_DDOT":"0.0000000000000","CLASSIFICATION_TYPE":"U","ARG_OF_PERICENTER":"74.6481","CENTER_NAME":"EARTH","GP_ID":"192869784","MEAN_ANOMALY":"285.4661","TLE_LINE2":"2 47550  53.0574  21.8369 0001388  74.6481 285.4661 15.06395070 50740","NORAD_CAT_ID":"47550"},{"CLASSIFICATION_TYPE":"U","MEAN_MOTION_DDOT":"0.0000000000000","EPOCH":"2022-01-01T07:37:36.422688","OBJECT_ID":"2021-009D","NORAD_CAT_ID":"47551","TLE_LINE2":"2 47551  53.0565  42.7426 0001324  78.7521 281.3617 15.06394965 50431","MEAN_ANOMALY":"281.3617","GP_ID":"192868041","CENTER_NAME":"EARTH","ARG_OF_PERICENTER":"78.7521","ELEMENT_SET_NO":"999","RCS_SIZE":"LARGE","REF_FRAME":"TEME","INCLINATION":"53.0565","MEAN_MOTION":"15.06394965","TIME_SYSTEM":"UTC","BSTAR":"0.00006391800000","PERIOD":"95.592","TLE_LINE1":"1 47551U 21009D   22001.31778267  .00000671  00000-0  63918-4 0  9995","EPHEMERIS_TYPE":"0","RA_OF_ASC_NODE":"42.7426","PERIAPSIS":"546.312","REV_AT_EPOCH":"5043","MEAN_MOTION_DOT":"0.00000671","OBJECT_TYPE":"PAYLOAD","COUNTRY_CODE":"US","APOAPSIS":"548.146","DECAY_DATE":null,"SEMIMAJOR_AXIS":"6925.364","FILE":"3255244","LAUNCH_DATE":"2021-02-04","ECCENTRICITY":"0.00013240","OBJECT_NAME":"STARLINK-1938","SITE":"AFETR","MEAN_ELEMENT_THEORY":"SGP4"},{"SEMIMAJOR_AXIS":"6925.375","FILE":"3255244","OBJECT_TYPE":"PAYLOAD","COUNTRY_CODE":"US","APOAPSIS":"548.254","DECAY_DATE":null,"RA_OF_ASC_NODE":"32.4327","PERIAPSIS":"546.226","REV_AT_EPOCH":"5058","MEAN_MOTION_DOT":"0.00000938","TLE_LINE1":"1 47552U 21009E   22001.38874141  .00000938  00000-0  81844-4 0  9995","EPHEMERIS_TYPE":"0","SITE":"AFETR","MEAN_ELEMENT_THEORY":"SGP4","OBJECT_NAME":"STARLINK-1940","ECCENTRICITY":"0.00014640","LAUNCH_DATE":"2021-02-04","GP_ID":"192868291","CENTER_NAME":"EARTH","ARG_OF_PERICENTER":"78.5251","NORAD_CAT_ID":"47552","TLE_LINE2":"2 47552  53.0557  32.4327 0001464  78.5251 281.5903 15.06391278 50582","MEAN_ANOMALY":"281.5903","MEAN_MOTION_DDOT":"0.0000000000000","EPOCH":"2022-01-01T09:19:47.257824","OBJECT_ID":"2021-009E","CLASSIFICATION_TYPE":"U","TIME_SYSTEM":"UTC","BSTAR":"0.00008184400000","PERIOD":"95.593","MEAN_MOTION":"15.06391278","REF_FRAME":"TEME","INCLINATION":"53.0557","ELEMENT_SET_NO":"999","RCS_SIZE":"LARGE"},{"MEAN_ANOMALY":"335.6439","TLE_LINE2":"2 47553  53.0607  24.8253 0002148  24.4663 335.6439 15.34455948 50748","NORAD_CAT_ID":"47553","ARG_OF_PERICENTER":"24.4663","CENTER_NAME":"EARTH","GP_ID":"192893460","CLASSIFICATION_TYPE":"U","OBJECT_ID":"2021-009F","EPOCH":"2022-01-01T22:57:02.577312","MEAN_MOTION_DDOT":"0.0000000000000","MEAN_MOTION":"15.34455948","BSTAR":"0.00367070000000","PERIOD":"93.844","TIME_SYSTEM":"UTC","RCS_SIZE":"LARGE","ELEMENT_SET_NO":"999","INCLINATION":"53.0607","REF_FRAME":"TEME","DECAY_DATE":null,"COUNTRY_CODE":"US","APOAPSIS":"464.008","OBJECT_TYPE":"PAYLOAD","FILE":"3255246","SEMIMAJOR_AXIS":"6840.674","EPHEMERIS_TYPE":"0","TLE_LINE1":"1 47553U 21009F   22001.95627983  .00125978  00000-0  36707-2 0  9997","MEAN_MOTION_DOT":"0.00125978","REV_AT_EPOCH":"5074","PERIAPSIS":"461.070","RA_OF_ASC_NODE":"24.8253","OBJECT_NAME":"STARLINK-1951","MEAN_ELEMENT_THEORY":"SGP4","SITE":"AFETR","LAUNCH_DATE":"2021-02-04","ECCENTRICITY":"0.00021480"},{"OBJECT_ID":"2021-009G","EPOCH":"2022-01-01T09:27:44.617824","MEAN_MOTION_DDOT":"0.0000000000000","CLASSIFICATION_TYPE":"U","ARG_OF_PERICENTER":"182.4630","CENTER_NAME":"EARTH","GP_ID":"192869284","MEAN_ANOMALY":"177.6347","TLE_LINE2":"2 47554  53.0568  52.4035 0002516 182.4630 177.6347 15.06393470 50302","NORAD_CAT_ID":"47554","INCLINATION":"53.0568","REF_FRAME":"TEME","RCS_SIZE":"LARGE","ELEMENT_SET_NO":"999","PERIOD":"95.593","BSTAR":"0.00008992500000","TIME_SYSTEM":"UTC","MEAN_MOTION":"15.06393470","MEAN_MOTION_DOT":"0.00001058","REV_AT_EPOCH":"5030","PERIAPSIS":"545.491","RA_OF_ASC_NODE":"52.4035","EPHEMERIS_TYPE":"0","TLE_LINE1":"1 47554U 21009G   22001.39426641  .00001058  00000-0  89925-4 0  9998","FILE":"3255244","SEMIMAJOR_AXIS":"6925.369","DECAY_DATE":null,"COUNTRY_CODE":"US","APOAPSIS":"548.976","OBJECT_TYPE":"PAYLOAD","ECCENTRICITY":"0.00025160","LAUNCH_DATE":"2021-02-04","MEAN_ELEMENT_THEORY":"SGP4","SITE":"AFETR","OBJECT_NAME":"STARLINK-1953"}];
